QIANFAN-49              
1 62250U 24232P   25358.24618377  .00000072  00000+0  92873-4 0  9990
2 62250  89.0015  40.0755 0015235 155.3164 204.8720 13.50980937 69397
QIANFAN-50              
1 62251U 24232Q   25358.19679887  .00000083  00000+0  11050-3 0  9997
2 62251  89.0020  40.0892 0016847 157.3787 202.8110 13.50977753 69415
QIANFAN-51              
1 62252U 24232R   25358.25442073  .00000077  00000+0  99960-4 0  9990
2 62252  89.0014  40.0767 0014241 159.5559 200.6166 13.50980467 69410
QIANFAN-52              
1 62253U 24232S   25358.20918042  .00000068  00000+0  86719-4 0  9998
2 62253  89.0010  39.9543 0016450 153.3478 206.8523 13.50978596 69495
QIANFAN-53              
1 62254U 24232T   25358.26263675  .00000080  00000+0  10466-3 0  9999
2 62254  89.0018  40.0542 0015317 153.8035 206.3894 13.50980996 69461
QIANFAN-54              
1 62255U 24232U   25358.22972075  .00000091  00000+0  12204-3 0  9991
2 62255  89.0009  39.7350 0002572 152.7224 207.4063 13.50981286100965
QIANFAN-55              
1 62785U 25016A   25358.25571629  .00000199  00000+0  29033-3 0  9990
2 62785  88.9783 102.0225 0015759 317.9642  42.0299 13.50991040 48745
QIANFAN-56              
1 62786U 25016B   25358.27220607  .00000175  00000+0  25217-3 0  9994
2 62786  88.9756 101.8542 0014447 320.8621  39.1484 13.50981989 48797
